start=new Date('%Y-%m-57T00:00:00.000Z').valueOf();
sats=[{"INCLINATION":"53.0562","NORAD_CAT_ID":"46065","ELEMENT_SET_NO":"999","RCS_SIZE":"LARGE","MEAN_MOTION_DOT":"0.00000024","REV_AT_EPOCH":"5891","LAUNCH_DATE":"2020-08-07","DECAY_DATE":null,"MEAN_ELEMENT_THEORY":"SGP4","OBJECT_NAME":"STARLINK-1515","BSTAR":"0.00002052400000","ARG_OF_PERICENTER":"133.8433","PERIAPSIS":"546.533","OBJECT_ID":"2020-055AQ","FILE":"3100831","APOAPSIS":"547.893","TLE_LINE2":"2 46065  53.0562 353.9916 0000982 133.8433 226.2638 15.06400260 58910","EPHEMERIS_TYPE":"0","MEAN_ANOMALY":"226.2638","MEAN_MOTION_DDOT":"0.0000000000000","SITE":"AFETR","OBJECT_TYPE":"PAYLOAD","EPOCH":"2021-08-21T12:10:37.314048","TLE_LINE1":"1 46065U 20055AQ  21233.50737632  .00000024  00000-0  20524-4 0  9990","COUNTRY_CODE":"US","CLASSIFICATION_TYPE":"U","TIME_SYSTEM":"UTC","MEAN_MOTION":"15.06400260","ECCENTRICITY":"0.00009820","CENTER_NAME":"EARTH","GP_ID":"183184869","RA_OF_ASC_NODE":"353.9916","PERIOD":"95.592","REF_FRAME":"TEME","SEMIMAJOR_AXIS":"6925.348"},{"MEAN_MOTION_DOT":"-0.00000615","RCS_SIZE":"LARGE","NORAD_CAT_ID":"46066","INCLINATION":"53.0560","ELEMENT_SET_NO":"999","REV_AT_EPOCH":"5892","DECAY_DATE":null,"LAUNCH_DATE":"2020-08-07","ARG_OF_PERICENTER":"104.6642","MEAN_ELEMENT_THEORY":"SGP4","OBJECT_NAME":"STARLINK-1525","BSTAR":"-0.00002239600000","EPHEMERIS_TYPE":"0","TLE_LINE2":"2 46066  53.0560 353.9391 0001418 104.6642 255.4504 15.06392322 58925","MEAN_ANOMALY":"255.4504","PERIAPSIS":"546.255","FILE":"3100831","APOAPSIS":"548.219","OBJECT_ID":"2020-055AR","TLE_LINE1":"1 46066U 20055AR  21233.51201068 -.00000615  00000-0 -22396-4 0  9998","EPOCH":"2021-08-21T12:17:17.722752","COUNTRY_CODE":"US","MEAN_MOTION_DDOT":"0.0000000000000","SITE":"AFETR","OBJECT_TYPE":"PAYLOAD","GP_ID":"183183617","CLASSIFICATION_TYPE":"U","ECCENTRICITY":"0.00014180","CENTER_NAME":"EARTH","MEAN_MOTION":"15.06392322","TIME_SYSTEM":"UTC","SEMIMAJOR_AXIS":"6925.372","REF_FRAME":"TEME","PERIOD":"95.593","RA_OF_ASC_NODE":"353.9391"},{"DECAY_DATE":null,"LAUNCH_DATE":"2020-08-07","ARG_OF_PERICENTER":"104.4614","MEAN_ELEMENT_THEORY":"SGP4","BSTAR":"-0.00004017800000","OBJECT_NAME":"STARLINK-1529","MEAN_MOTION_DOT":"-0.00000880","RCS_SIZE":"LARGE","INCLINATION":"53.0554","NORAD_CAT_ID":"46067","ELEMENT_SET_NO":"999","REV_AT_EPOCH":"5893","GP_ID":"183184367","CLASSIFICATION_TYPE":"U","MEAN_MOTION":"15.06392619","TIME_SYSTEM":"UTC","ECCENTRICITY":"0.00014870","CENTER_NAME":"EARTH","REF_FRAME":"TEME","SEMIMAJOR_AXIS":"6925.371","PERIOD":"95.593","RA_OF_ASC_NODE":"353.9295","TLE_LINE2":"2 46067  53.0554 353.9295 0001487 104.4614 255.6540 15.06392619 58937","EPHEMERIS_TYPE":"0","MEAN_ANOMALY":"255.6540","PERIAPSIS":"546.206","OBJECT_ID":"2020-055AS","FILE":"3100831","APOAPSIS":"548.266","EPOCH":"2021-08-21T12:22:36.016896","TLE_LINE1":"1 46067U 20055AS  21233.51569464 -.00000880  00000-0 -40178-4 0  9998","COUNTRY_CODE":"US","MEAN_MOTION_DDOT":"0.0000000000000","SITE":"AFETR","OBJECT_TYPE":"PAYLOAD"},{"ARG_OF_PERICENTER":"118.6260","MEAN_ELEMENT_THEORY":"SGP4","OBJECT_NAME":"STARLINK-1532","BSTAR":"0.00031538000000","DECAY_DATE":null,"LAUNCH_DATE":"2020-08-07","REV_AT_EPOCH":"5893","RCS_SIZE":"LARGE","MEAN_MOTION_DOT":"0.00004423","NORAD_CAT_ID":"46068","INCLINATION":"53.0562","ELEMENT_SET_NO":"999","SEMIMAJOR_AXIS":"6925.259","REF_FRAME":"TEME","RA_OF_ASC_NODE":"353.8827","PERIOD":"95.590","GP_ID":"183184619","CLASSIFICATION_TYPE":"U","ECCENTRICITY":"0.00012320","CENTER_NAME":"EARTH","MEAN_MOTION":"15.06429101","TIME_SYSTEM":"UTC","TLE_LINE1":"1 46068U 20055AT  21233.52672052  .00004423  00000-0  31538-3 0  9992","EPOCH":"2021-08-21T12:38:28.652928","COUNTRY_CODE":"US","MEAN_MOTION_DDOT":"0.0000000000000","SITE":"AFETR","OBJECT_TYPE":"PAYLOAD","EPHEMERIS_TYPE":"0","TLE_LINE2":"2 46068  53.0562 353.8827 0001232 118.6260 241.4853 15.06429101 58936","MEAN_ANOMALY":"241.4853","PERIAPSIS":"546.271","FILE":"3100831","APOAPSIS":"547.978","OBJECT_ID":"2020-055AT"},{"OBJECT_TYPE":"PAYLOAD","SITE":"AFETR","MEAN_MOTION_DDOT":"0.0000000000000","COUNTRY_CODE":"US","EPOCH":"2021-08-21T11:24:12.731040","TLE_LINE1":"1 46069U 20055AU  21233.47514735 -.00000562  00000-0 -18865-4 0  9991","OBJECT_ID":"2020-055AU","FILE":"3100831","APOAPSIS":"548.090","PERIAPSIS":"546.354","MEAN_ANOMALY":"254.8926","TLE_LINE2":"2 46069  53.0548 354.1116 0001253 105.2202 254.8926 15.06397272 58939","EPHEMERIS_TYPE":"0","PERIOD":"95.592","RA_OF_ASC_NODE":"354.1116","REF_FRAME":"TEME","SEMIMAJOR_AXIS":"6925.357","MEAN_MOTION":"15.06397272","TIME_SYSTEM":"UTC","ECCENTRICITY":"0.00012530","CENTER_NAME":"EARTH","CLASSIFICATION_TYPE":"U","GP_ID":"183185369","REV_AT_EPOCH":"5893","ELEMENT_SET_NO":"999","INCLINATION":"53.0548","NORAD_CAT_ID":"46069","RCS_SIZE":"LARGE","MEAN_MOTION_DOT":"-0.00000562","BSTAR":"-0.00001886500000","OBJECT_NAME":"STARLINK-1533","MEAN_ELEMENT_THEORY":"SGP4","ARG_OF_PERICENTER":"105.2202","LAUNCH_DATE":"2020-08-07","DECAY_DATE":null},{"MEAN_ELEMENT_THEORY":"SGP4","BSTAR":"-0.00002197600000","OBJECT_NAME":"STARLINK-1536","ARG_OF_PERICENTER":"107.8061","LAUNCH_DATE":"2020-08-07","DECAY_DATE":null,"REV_AT_EPOCH":"5894","NORAD_CAT_ID":"46070","INCLINATION":"53.0548","ELEMENT_SET_NO":"999","RCS_SIZE":"LARGE","MEAN_MOTION_DOT":"-0.00000609","PERIOD":"95.592","RA_OF_ASC_NODE":"353.7475","SEMIMAJOR_AXIS":"6925.362","REF_FRAME":"TEME","CLASSIFICATION_TYPE":"U","ECCENTRICITY":"0.00011100","CENTER_NAME":"EARTH","TIME_SYSTEM":"UTC","MEAN_MOTION":"15.06395503","GP_ID":"183184117","MEAN_MOTION_DDOT":"0.0000000000000","SITE":"AFETR","OBJECT_TYPE":"PAYLOAD","EPOCH":"2021-08-21T13:20:58.837920","TLE_LINE1":"1 46070U 20055AV  21233.55623655 -.00000609  00000-0 -21976-4 0  9993","COUNTRY_CODE":"US","PERIAPSIS":"546.459","FILE":"3100831","APOAPSIS":"547.996","OBJECT_ID":"2020-055AV","EPHEMERIS_TYPE":"0","TLE_LINE2":"2 46070  53.0548 353.7475 0001110 107.8061 252.3049 15.06395503 58942","MEAN_ANOMALY":"252.3049"},{"NORAD_CAT_ID":"46071","INCLINATION":"53.0567","ELEMENT_SET_NO":"999","RCS_SIZE":"LARGE","MEAN_MOTION_DOT":"0.00001466","REV_AT_EPOCH":"5893","LAUNCH_DATE":"2020-08-07","DECAY_DATE":null,"MEAN_ELEMENT_THEORY":"SGP4","OBJECT_NAME":"STARLINK-1538","BSTAR":"0.00011728000000","ARG_OF_PERICENTER":"113.5268","PERIAPSIS":"546.275","FILE":"3100831","APOAPSIS":"548.133","OBJECT_ID":"2020-055AW","EPHEMERIS_TYPE":"0","TLE_LINE2":"2 46071  53.0567 353.9600 0001341 113.5268 246.5862 15.06403147 58936","MEAN_ANOMALY":"246.5862","MEAN_MOTION_DDOT":"0.0000000000000","OBJECT_TYPE":"PAYLOAD","SITE":"AFETR","EPOCH":"2021-08-21T12:11:58.430688","TLE_LINE1":"1 46071U 20055AW  21233.50831517  .00001466  00000-0  11728-3 0  9990","COUNTRY_CODE":"US","CLASSIFICATION_TYPE":"U","ECCENTRICITY":"0.00013410","CENTER_NAME":"EARTH","MEAN_MOTION":"15.06403147","TIME_SYSTEM":"UTC","GP_ID":"183183868","PERIOD":"95.592","RA_OF_ASC_NODE":"353.9600","SEMIMAJOR_AXIS":"6925.339","REF_FRAME":"TEME"},{"GP_ID":"183185119","TIME_SYSTEM":"UTC","MEAN_MOTION":"15.06397963","CENTER_NAME":"EARTH","ECCENTRICITY":"0.00012280","CLASSIFICATION_TYPE":"U","REF_FRAME":"TEME","SEMIMAJOR_AXIS":"6925.355","RA_OF_ASC_NODE":"354.1346","PERIOD":"95.592","MEAN_ANOMALY":"233.3862","TLE_LINE2":"2 46072  53.0548 354.1346 0001228 126.7240 233.3862 15.06397963 58916","EPHEMERIS_TYPE":"0","OBJECT_ID":"2020-055AX","APOAPSIS":"548.070","FILE":"3100831","PERIAPSIS":"546.369","COUNTRY_CODE":"US","EPOCH":"2021-08-21T11:12:14.036832","TLE_LINE1":"1 46072U 20055AX  21233.46682913  .00001005  00000-0  86323-4 0  9993","OBJECT_TYPE":"PAYLOAD","SITE":"AFETR","MEAN_MOTION_DDOT":"0.0000000000000","DECAY_DATE":null,"LAUNCH_DATE":"2020-08-07","ARG_OF_PERICENTER":"126.7240","BSTAR":"0.00008632300000","OBJECT_NAME":"STARLINK-1539","MEAN_ELEMENT_THEORY":"SGP4","MEAN_MOTION_DOT":"0.00001005","RCS_SIZE":"LARGE","ELEMENT_SET_NO":"999","INCLINATION":"53.0548","NORAD_CAT_ID":"46072","REV_AT_EPOCH":"5891"},{"OBJECT_TYPE":"PAYLOAD","SITE":"AFETR","MEAN_MOTION_DDOT":"0.0000000000000","COUNTRY_CODE":"US","TLE_LINE1":"1 46073U 20055AY  21233.54885594  .00001388  00000-0  11207-3 0  9995","EPOCH":"2021-08-21T13:10:21.153216","APOAPSIS":"548.202","FILE":"3100831","OBJECT_ID":"2020-055AY","PERIAPSIS":"546.191","MEAN_ANOMALY":"249.9945","EPHEMERIS_TYPE":"0","TLE_LINE2":"2 46073  53.0570 353.7745 0001452 110.1201 249.9945 15.06405523 58932","RA_OF_ASC_NODE":"353.7745","PERIOD":"95.592","SEMIMAJOR_AXIS":"6925.332","REF_FRAME":"TEME","ECCENTRICITY":"0.00014520","CENTER_NAME":"EARTH","MEAN_MOTION":"15.06405523","TIME_SYSTEM":"UTC","CLASSIFICATION_TYPE":"U","GP_ID":"183184870","REV_AT_EPOCH":"5893","ELEMENT_SET_NO":"999","NORAD_CAT_ID":"46073","INCLINATION":"53.0570","RCS_SIZE":"LARGE","MEAN_MOTION_DOT":"0.00001388","OBJECT_NAME":"STARLINK-1542","BSTAR":"0.00011207000000","MEAN_ELEMENT_THEORY":"SGP4","ARG_OF_PERICENTER":"110.1201","LAUNCH_DATE":"2020-08-07","DECAY_DATE":null},{"DECAY_DATE":null,"LAUNCH_DATE":"2020-08-07","ARG_OF_PERICENTER":"114.6384","MEAN_ELEMENT_THEORY":"SGP4","BSTAR":"-0.00001133100000","OBJECT_NAME":"STARLINK-1549","MEAN_MOTION_DOT":"-0.00000450","RCS_SIZE":"LARGE","INCLINATION":"53.0553","NORAD_CAT_ID":"46074","ELEMENT_SET_NO":"999","REV_AT_EPOCH":"5892","GP_ID":"183183618","CLASSIFICATION_TYPE":"U","MEAN_MOTION":"15.06395159","TIME_SYSTEM":"UTC","ECCENTRICITY":"0.00012880","CENTER_NAME":"EARTH","REF_FRAME":"TEME","SEMIMAJOR_AXIS":"6925.363","RA_OF_ASC_NODE":"353.8455","PERIOD":"95.592","TLE_LINE2":"2 46074  53.0553 353.8455 0001288 114.6384 245.4739 15.06395159 58925","EPHEMERIS_TYPE":"0","MEAN_ANOMALY":"245.4739","PERIAPSIS":"546.336","OBJECT_ID":"2020-055AZ","FILE":"3100831","APOAPSIS":"548.120","TLE_LINE1":"1 46074U 20055AZ  21233.53412350 -.00000450  00000-0 -11331-4 0  9991","EPOCH":"2021-08-21T12:49:08.270400","COUNTRY_CODE":"US","MEAN_MOTION_DDOT":"0.0000000000000","SITE":"AFETR","OBJECT_TYPE":"PAYLOAD"}];
